ONEWEB-0311             
1 49097U 21075Y   26098.23449359  .00000064  00000+0  13092-3 0  9995
2 49097  87.9191  19.7526 0001342  83.7353 276.3932 13.17650442224413
ONEWEB-0312             
1 49098U 21075Z   26098.17375862  .00000102  00000+0  22952-3 0  9994
2 49098  87.9184  19.7801 0001568  70.0509 290.0791 13.17651271224387
ONEWEB-0313             
1 49099U 21075AA  26098.25461546  .00000067  00000+0  13866-3 0  9993
2 49099  87.9184  19.7705 0001686  78.4614 281.6707 13.17651576224382
ONEWEB-0314             
1 49100U 21075AB  26098.22099595  .00000086  00000+0  18800-3 0  9998
2 49100  87.9191  19.7422 0001490  70.1474 289.9818 13.17651791224355
ONEWEB-0315             
1 49101U 21075AC  26098.22277440 -.00000302  00000+0 -87496-3 0  9996
2 49101  87.9013   4.5378 0001475  87.6053 272.5245 13.12441350225996
ONEWEB-0316             
1 49102U 21075AD  26098.20072694  .00000105  00000+0  23379-3 0  9998
2 49102  87.9224 349.3739 0001692  81.6533 278.4791 13.18688190227983
ONEWEB-0317             
1 49103U 21075AE  26098.22616080 -.00000387  00000+0 -11121-2 0  9999
2 49103  87.9015   4.5603 0002414  68.3571 291.7814 13.12441306226016
ONEWEB-0318             
1 49104U 21075AF  26098.19742624  .00000088  00000+0  19028-3 0  9991
2 49104  87.9234 349.3699 0001521  85.5611 274.5695 13.18689218227940
ONEWEB-0319             
1 49105U 21075AG  26098.23617647  .00000114  00000+0  26115-3 0  9998
2 49105  87.9181  19.7617 0001402  93.1126 267.0166 13.17651710224395
ONEWEB-0323             
1 49106U 21075AH  26098.20754033 -.00000172  00000+0 -51468-3 0  9992
2 49106  87.9013   4.5459 0001249  87.7481 272.3790 13.12441721225373
ONEWEB-0329             
1 49107U 21075AJ  26098.16869591  .00000022  00000+0  24685-4 0  9998
2 49107  87.9184  19.7755 0001662  75.5093 284.6223 13.17651102224369
ONEWEB-0330             
1 49108U 21075AK  26098.19246290  .00000056  00000+0  11170-3 0  9998
2 49108  87.9187  19.7894 0001760  70.7725 289.3597 13.17648710224407
ONEWEB-0292             
1 49186U 21083A   26098.15834454 -.00000117  00000+0 -35583-3 0  9998
2 49186  87.8984 334.1905 0001579  86.2660 273.8650 13.13469973221731
ONEWEB-0303             
1 49187U 21083B   26098.19412755  .00000119  00000+0  27029-3 0  9995
2 49187  87.9227 349.3729 0001581  82.5245 277.6067 13.18689273220753
ONEWEB-0306             
1 49188U 21083C   26098.18425093  .00000175  00000+0  41241-3 0  9998
2 49188  87.9233 349.3588 0001934  76.3245 283.8102 13.18685294220799
ONEWEB-0307             
1 49189U 21083D   26098.15240410 -.00000182  00000+0 -53351-3 0  9999
2 49189  87.8995 334.1814 0001603  82.3826 277.7486 13.13468530221732
