[{"OBJECT_NAME":"ONEWEB-0311","OBJECT_ID":"2021-075Y","EPOCH":"2026-04-08T05:37:40.246176","MEAN_MOTION":13.17650442,"ECCENTRICITY":0.0001342,"INCLINATION":87.9191,"RA_OF_ASC_NODE":19.7526,"ARG_OF_PERICENTER":83.7353,"MEAN_ANOMALY":276.3932,"EPHEMERIS_TYPE":0,"CLASSIFICATION_TYPE":"U","NORAD_CAT_ID":49097,"ELEMENT_SET_NO":999,"REV_AT_EPOCH":22441,"BSTAR":0.00013092,"MEAN_MOTION_DOT":6.4e-07,"MEAN_MOTION_DDOT":0.0},{"OBJECT_NAME":"ONEWEB-0312","OBJECT_ID":"2021-075Z","EPOCH":"2026-04-08T04:10:12.744768","MEAN_MOTION":13.17651271,"ECCENTRICITY":0.0001568,"INCLINATION":87.9184,"RA_OF_ASC_NODE":19.7801,"ARG_OF_PERICENTER":70.0509,"MEAN_ANOMALY":290.0791,"EPHEMERIS_TYPE":0,"CLASSIFICATION_TYPE":"U","NORAD_CAT_ID":49098,"ELEMENT_SET_NO":999,"REV_AT_EPOCH":22438,"BSTAR":0.00022952,"MEAN_MOTION_DOT":1.02e-06,"MEAN_MOTION_DDOT":0.0},{"OBJECT_NAME":"ONEWEB-0313","OBJECT_ID":"2021-075AA","EPOCH":"2026-04-08T06:06:38.775744","MEAN_MOTION":13.17651576,"ECCENTRICITY":0.0001686,"INCLINATION":87.9184,"RA_OF_ASC_NODE":19.7705,"ARG_OF_PERICENTER":78.4614,"MEAN_ANOMALY":281.6707,"EPHEMERIS_TYPE":0,"CLASSIFICATION_TYPE":"U","NORAD_CAT_ID":49099,"ELEMENT_SET_NO":999,"REV_AT_EPOCH":22438,"BSTAR":0.00013866,"MEAN_MOTION_DOT":6.7e-07,"MEAN_MOTION_DDOT":0.0},{"OBJECT_NAME":"ONEWEB-0314","OBJECT_ID":"2021-075AB","EPOCH":"2026-04-08T05:18:14.050080","MEAN_MOTION":13.17651791,"ECCENTRICITY":0.000149,"INCLINATION":87.9191,"RA_OF_ASC_NODE":19.7422,"ARG_OF_PERICENTER":70.1474,"MEAN_ANOMALY":289.9818,"EPHEMERIS_TYPE":0,"CLASSIFICATION_TYPE":"U","NORAD_CAT_ID":49100,"ELEMENT_SET_NO":999,"REV_AT_EPOCH":22435,"BSTAR":0.00018800000000000002,"MEAN_MOTION_DOT":8.6e-07,"MEAN_MOTION_DDOT":0.0},{"OBJECT_NAME":"ONEWEB-0315","OBJECT_ID":"2021-075AC","EPOCH":"2026-04-08T05:20:47.708160","MEAN_MOTION":13.1244135,"ECCENTRICITY":0.0001475,"INCLINATION":87.9013,"RA_OF_ASC_NODE":4.5378,"ARG_OF_PERICENTER":87.6053,"MEAN_ANOMALY":272.5245,"EPHEMERIS_TYPE":0,"CLASSIFICATION_TYPE":"U","NORAD_CAT_ID":49101,"ELEMENT_SET_NO":999,"REV_AT_EPOCH":22599,"BSTAR":-0.0008749599999999999,"MEAN_MOTION_DOT":-3.02e-06,"MEAN_MOTION_DDOT":0.0},{"OBJECT_NAME":"ONEWEB-0316","OBJECT_ID":"2021-075AD","EPOCH":"2026-04-08T04:49:02.807616","MEAN_MOTION":13.1868819,"ECCENTRICITY":0.0001692,"INCLINATION":87.9224,"RA_OF_ASC_NODE":349.3739,"ARG_OF_PERICENTER":81.6533,"MEAN_ANOMALY":278.4791,"EPHEMERIS_TYPE":0,"CLASSIFICATION_TYPE":"U","NORAD_CAT_ID":49102,"ELEMENT_SET_NO":999,"REV_AT_EPOCH":22798,"BSTAR":0.00023379,"MEAN_MOTION_DOT":1.05e-06,"MEAN_MOTION_DDOT":0.0},{"OBJECT_NAME":"ONEWEB-0317","OBJECT_ID":"2021-075AE","EPOCH":"2026-04-08T05:25:40.293120","MEAN_MOTION":13.12441306,"ECCENTRICITY":0.0002414,"INCLINATION":87.9015,"RA_OF_ASC_NODE":4.5603,"ARG_OF_PERICENTER":68.3571,"MEAN_ANOMALY":291.7814,"EPHEMERIS_TYPE":0,"CLASSIFICATION_TYPE":"U","NORAD_CAT_ID":49103,"ELEMENT_SET_NO":999,"REV_AT_EPOCH":22601,"BSTAR":-0.0011121,"MEAN_MOTION_DOT":-3.87e-06,"MEAN_MOTION_DDOT":0.0},{"OBJECT_NAME":"ONEWEB-0318","OBJECT_ID":"2021-075AF","EPOCH":"2026-04-08T04:44:17.627136","MEAN_MOTION":13.18689218,"ECCENTRICITY":0.0001521,"INCLINATION":87.9234,"RA_OF_ASC_NODE":349.3699,"ARG_OF_PERICENTER":85.5611,"MEAN_ANOMALY":274.5695,"EPHEMERIS_TYPE":0,"CLASSIFICATION_TYPE":"U","NORAD_CAT_ID":49104,"ELEMENT_SET_NO":999,"REV_AT_EPOCH":22794,"BSTAR":0.00019028,"MEAN_MOTION_DOT":8.8e-07,"MEAN_MOTION_DDOT":0.0},{"OBJECT_NAME":"ONEWEB-0319","OBJECT_ID":"2021-075AG","EPOCH":"2026-04-08T05:40:05.647008","MEAN_MOTION":13.1765171,"ECCENTRICITY":0.0001402,"INCLINATION":87.9181,"RA_OF_ASC_NODE":19.7617,"ARG_OF_PERICENTER":93.1126,"MEAN_ANOMALY":267.0166,"EPHEMERIS_TYPE":0,"CLASSIFICATION_TYPE":"U","NORAD_CAT_ID":49105,"ELEMENT_SET_NO":999,"REV_AT_EPOCH":22439,"BSTAR":0.00026115,"MEAN_MOTION_DOT":1.14e-06,"MEAN_MOTION_DDOT":0.0},{"OBJECT_NAME":"ONEWEB-0323","OBJECT_ID":"2021-075AH","EPOCH":"2026-04-08T04:58:51.484512","MEAN_MOTION":13.12441721,"ECCENTRICITY":0.0001249,"INCLINATION":87.9013,"RA_OF_ASC_NODE":4.5459,"ARG_OF_PERICENTER":87.7481,"MEAN_ANOMALY":272.379,"EPHEMERIS_TYPE":0,"CLASSIFICATION_TYPE":"U","NORAD_CAT_ID":49106,"ELEMENT_SET_NO":999,"REV_AT_EPOCH":22537,"BSTAR":-0.00051468,"MEAN_MOTION_DOT":-1.72e-06,"MEAN_MOTION_DDOT":0.0},{"OBJECT_NAME":"ONEWEB-0329","OBJECT_ID":"2021-075AJ","EPOCH":"2026-04-08T04:02:55.326624","MEAN_MOTION":13.17651102,"ECCENTRICITY":0.0001662,"INCLINATION":87.9184,"RA_OF_ASC_NODE":19.7755,"ARG_OF_PERICENTER":75.5093,"MEAN_ANOMALY":284.6223,"EPHEMERIS_TYPE":0,"CLASSIFICATION_TYPE":"U","NORAD_CAT_ID":49107,"ELEMENT_SET_NO":999,"REV_AT_EPOCH":22436,"BSTAR":2.4685e-05,"MEAN_MOTION_DOT":2.2e-07,"MEAN_MOTION_DDOT":0.0},{"OBJECT_NAME":"ONEWEB-0330","OBJECT_ID":"2021-075AK","EPOCH":"2026-04-08T04:37:08.794560","MEAN_MOTION":13.1764871,"ECCENTRICITY":0.000176,"INCLINATION":87.9187,"RA_OF_ASC_NODE":19.7894,"ARG_OF_PERICENTER":70.7725,"MEAN_ANOMALY":289.3597,"EPHEMERIS_TYPE":0,"CLASSIFICATION_TYPE":"U","NORAD_CAT_ID":49108,"ELEMENT_SET_NO":999,"REV_AT_EPOCH":22440,"BSTAR":0.00011169999999999999,"MEAN_MOTION_DOT":5.6e-07,"MEAN_MOTION_DDOT":0.0},{"OBJECT_NAME":"ONEWEB-0292","OBJECT_ID":"2021-083A","EPOCH":"2026-04-08T03:48:00.968256","MEAN_MOTION":13.13469973,"ECCENTRICITY":0.0001579,"INCLINATION":87.8984,"RA_OF_ASC_NODE":334.1905,"ARG_OF_PERICENTER":86.266,"MEAN_ANOMALY":273.865,"EPHEMERIS_TYPE":0,"CLASSIFICATION_TYPE":"U","NORAD_CAT_ID":49186,"ELEMENT_SET_NO":999,"REV_AT_EPOCH":22173,"BSTAR":-0.00035583,"MEAN_MOTION_DOT":-1.17e-06,"MEAN_MOTION_DDOT":0.0},{"OBJECT_NAME":"ONEWEB-0303","OBJECT_ID":"2021-083B","EPOCH":"2026-04-08T04:39:32.620320","MEAN_MOTION":13.18689273,"ECCENTRICITY":0.0001581,"INCLINATION":87.9227,"RA_OF_ASC_NODE":349.3729,"ARG_OF_PERICENTER":82.5245,"MEAN_ANOMALY":277.6067,"EPHEMERIS_TYPE":0,"CLASSIFICATION_TYPE":"U","NORAD_CAT_ID":49187,"ELEMENT_SET_NO":999,"REV_AT_EPOCH":22075,"BSTAR":0.00027028999999999996,"MEAN_MOTION_DOT":1.19e-06,"MEAN_MOTION_DDOT":0.0},{"OBJECT_NAME":"ONEWEB-0306","OBJECT_ID":"2021-083C","EPOCH":"2026-04-08T04:25:19.280352","MEAN_MOTION":13.18685294,"ECCENTRICITY":0.0001934,"INCLINATION":87.9233,"RA_OF_ASC_NODE":349.3588,"ARG_OF_PERICENTER":76.3245,"MEAN_ANOMALY":283.8102,"EPHEMERIS_TYPE":0,"CLASSIFICATION_TYPE":"U","NORAD_CAT_ID":49188,"ELEMENT_SET_NO":999,"REV_AT_EPOCH":22079,"BSTAR":0.00041241,"MEAN_MOTION_DOT":1.75e-06,"MEAN_MOTION_DDOT":0.0},{"OBJECT_NAME":"ONEWEB-0307","OBJECT_ID":"2021-083D","EPOCH":"2026-04-08T03:39:27.714240","MEAN_MOTION":13.1346853,"ECCENTRICITY":0.0001603,"INCLINATION":87.8995,"RA_OF_ASC_NODE":334.1814,"ARG_OF_PERICENTER":82.3826,"MEAN_ANOMALY":277.7486,"EPHEMERIS_TYPE":0,"CLASSIFICATION_TYPE":"U","NORAD_CAT_ID":49189,"ELEMENT_SET_NO":999,"REV_AT_EPOCH":22173,"BSTAR":-0.0005335100000000001,"MEAN_MOTION_DOT":-1.82e-06,"MEAN_MOTION_DDOT":0.0}]